start=new Date('2021-10-29T00:00:00.000Z').valueOf();
sats=[{"MEAN_ANOMALY":"289.8829","LAUNCH_DATE":"2021-03-11","BSTAR":"-0.00005280700000","SEMIMAJOR_AXIS":"6925.362","EPOCH":"2021-10-28T19:57:07.917696","PERIOD":"95.592","RCS_SIZE":"LARGE","PERIAPSIS":"545.952","CENTER_NAME":"EARTH","APOAPSIS":"548.502","INCLINATION":"53.0543","MEAN_MOTION":"15.06395715","TIME_SYSTEM":"UTC","NORAD_CAT_ID":"47800","OBJECT_NAME":"STARLINK-2381","COUNTRY_CODE":"US","ELEMENT_SET_NO":"999","EPHEMERIS_TYPE":"0","MEAN_MOTION_DOT":"-0.00001068","OBJECT_ID":"2021-018P","TLE_LINE2":"2 47800  53.0543 182.2331 0001841  70.2358 289.8829 15.06395715 36793","RA_OF_ASC_NODE":"182.2331","MEAN_MOTION_DDOT":"0.0000000000000","REV_AT_EPOCH":"3679","ECCENTRICITY":"0.00018410","DECAY_DATE":null,"TLE_LINE1":"1 47800U 21018P   21301.83134164 -.00001068  00000-0 -52807-4 0  9991","GP_ID":"188368284","FILE":"3189402","REF_FRAME":"TEME","OBJECT_TYPE":"PAYLOAD","CLASSIFICATION_TYPE":"U","ARG_OF_PERICENTER":"70.2358","SITE":"AFETR","MEAN_ELEMENT_THEORY":"SGP4"},{"MEAN_MOTION_DOT":"-0.00001029","EPHEMERIS_TYPE":"0","DECAY_DATE":null,"ECCENTRICITY":"0.00019770","REV_AT_EPOCH":"3666","TLE_LINE2":"2 47801  53.0555 189.2122 0001977  67.0065 293.1132 15.06399573 36668","MEAN_MOTION_DDOT":"0.0000000000000","RA_OF_ASC_NODE":"189.2122","OBJECT_ID":"2021-018Q","CLASSIFICATION_TYPE":"U","OBJECT_TYPE":"PAYLOAD","REF_FRAME":"TEME","FILE":"3189111","TLE_LINE1":"1 47801U 21018Q   21301.38947071 -.00001029  00000-0 -50185-4 0  9995","GP_ID":"188339743","MEAN_ELEMENT_THEORY":"SGP4","SITE":"AFETR","ARG_OF_PERICENTER":"67.0065","LAUNCH_DATE":"2021-03-11","MEAN_ANOMALY":"293.1132","PERIOD":"95.592","EPOCH":"2021-10-28T09:20:50.269344","SEMIMAJOR_AXIS":"6925.350","BSTAR":"-0.00005018500000","TIME_SYSTEM":"UTC","MEAN_MOTION":"15.06399573","INCLINATION":"53.0555","APOAPSIS":"548.584","PERIAPSIS":"545.846","CENTER_NAME":"EARTH","RCS_SIZE":"LARGE","ELEMENT_SET_NO":"999","COUNTRY_CODE":"US","OBJECT_NAME":"STARLINK-2382","NORAD_CAT_ID":"47801"},{"MEAN_MOTION_DOT":"0.00000454","EPHEMERIS_TYPE":"0","DECAY_DATE":null,"ECCENTRICITY":"0.00060900","REV_AT_EPOCH":"3645","TLE_LINE2":"2 47802  53.0561 207.2376 0006090  60.9332 299.2266 15.06392801 36457","RA_OF_ASC_NODE":"207.2376","MEAN_MOTION_DDOT":"0.0000000000000","OBJECT_ID":"2021-018R","CLASSIFICATION_TYPE":"U","REF_FRAME":"TEME","OBJECT_TYPE":"PAYLOAD","FILE":"3189402","TLE_LINE1":"1 47802U 21018R   21301.84563766  .00000454  00000-0  49487-4 0  9994","GP_ID":"188367286","MEAN_ELEMENT_THEORY":"SGP4","SITE":"AFETR","ARG_OF_PERICENTER":"60.9332","LAUNCH_DATE":"2021-03-11","MEAN_ANOMALY":"299.2266","EPOCH":"2021-10-28T20:17:43.093824","PERIOD":"95.593","SEMIMAJOR_AXIS":"6925.371","BSTAR":"0.00004948700000","TIME_SYSTEM":"UTC","MEAN_MOTION":"15.06392801","INCLINATION":"53.0561","APOAPSIS":"551.453","PERIAPSIS":"543.018","CENTER_NAME":"EARTH","RCS_SIZE":"LARGE","ELEMENT_SET_NO":"999","COUNTRY_CODE":"US","OBJECT_NAME":"STARLINK-2383","NORAD_CAT_ID":"47802"},{"OBJECT_NAME":"STARLINK-2384","NORAD_CAT_ID":"47803","ELEMENT_SET_NO":"999","COUNTRY_CODE":"US","INCLINATION":"53.0562","APOAPSIS":"548.550","PERIAPSIS":"545.917","CENTER_NAME":"EARTH","RCS_SIZE":"LARGE","TIME_SYSTEM":"UTC","MEAN_MOTION":"15.06393519","BSTAR":"-0.00006374800000","EPOCH":"2021-10-28T09:04:17.603328","PERIOD":"95.593","SEMIMAJOR_AXIS":"6925.368","MEAN_ANOMALY":"284.8308","LAUNCH_DATE":"2021-03-11","ARG_OF_PERICENTER":"75.2891","MEAN_ELEMENT_THEORY":"SGP4","SITE":"AFETR","TLE_LINE1":"1 47803U 21018S   21301.37798152 -.00001231  00000-0 -63748-4 0  9994","GP_ID":"188338242","CLASSIFICATION_TYPE":"U","REF_FRAME":"TEME","OBJECT_TYPE":"PAYLOAD","FILE":"3189111","REV_AT_EPOCH":"3672","RA_OF_ASC_NODE":"184.2723","TLE_LINE2":"2 47803  53.0562 184.2723 0001901  75.2891 284.8308 15.06393519 36728","MEAN_MOTION_DDOT":"0.0000000000000","OBJECT_ID":"2021-018S","DECAY_DATE":null,"ECCENTRICITY":"0.00019010","EPHEMERIS_TYPE":"0","MEAN_MOTION_DOT":"-0.00001231"},{"APOAPSIS":"548.511","INCLINATION":"53.0552","RCS_SIZE":"MEDIUM","PERIAPSIS":"545.855","CENTER_NAME":"EARTH","TIME_SYSTEM":"UTC","MEAN_MOTION":"15.06409942","NORAD_CAT_ID":"47804","OBJECT_NAME":"STARLINK-2385","COUNTRY_CODE":"US","ELEMENT_SET_NO":"999","MEAN_ANOMALY":"284.8381","LAUNCH_DATE":"2021-03-11","BSTAR":"0.00004020100000","PERIOD":"95.592","EPOCH":"2021-10-28T09:25:30.238176","SEMIMAJOR_AXIS":"6925.318","GP_ID":"188339493","TLE_LINE1":"1 47804U 21018T   21301.39271109  .00000317  00000-0  40201-4 0  9996","OBJECT_TYPE":"PAYLOAD","REF_FRAME":"TEME","CLASSIFICATION_TYPE":"U","FILE":"3189111","ARG_OF_PERICENTER":"75.2820","MEAN_ELEMENT_THEORY":"SGP4","SITE":"AFETR","EPHEMERIS_TYPE":"0","MEAN_MOTION_DOT":"0.00000317","REV_AT_EPOCH":"3672","OBJECT_ID":"2021-018T","MEAN_MOTION_DDOT":"0.0000000000000","TLE_LINE2":"2 47804  53.0552 184.1963 0001918  75.2820 284.8381 15.06409942 36722","RA_OF_ASC_NODE":"184.1963","ECCENTRICITY":"0.00019180","DECAY_DATE":null},{"BSTAR":"0.00008933200000","PERIOD":"95.592","EPOCH":"2021-10-28T09:40:05.006208","SEMIMAJOR_AXIS":"6925.358","MEAN_ANOMALY":"284.8395","LAUNCH_DATE":"2021-03-11","OBJECT_NAME":"STARLINK-2386","NORAD_CAT_ID":"47805","ELEMENT_SET_NO":"999","COUNTRY_CODE":"US","INCLINATION":"53.0540","APOAPSIS":"548.459","CENTER_NAME":"EARTH","PERIAPSIS":"545.987","RCS_SIZE":"MEDIUM","TIME_SYSTEM":"UTC","MEAN_MOTION":"15.06396818","REV_AT_EPOCH":"3673","TLE_LINE2":"2 47805  53.0540 184.1478 0001785  75.2791 284.8395 15.06396818 36733","RA_OF_ASC_NODE":"184.1478","MEAN_MOTION_DDOT":"0.0000000000000","OBJECT_ID":"2021-018U","DECAY_DATE":null,"ECCENTRICITY":"0.00017850","EPHEMERIS_TYPE":"0","MEAN_MOTION_DOT":"0.00001049","ARG_OF_PERICENTER":"75.2791","MEAN_ELEMENT_THEORY":"SGP4","SITE":"AFETR","GP_ID":"188339244","TLE_LINE1":"1 47805U 21018U   21301.40283572  .00001049  00000-0  89332-4 0  9997","CLASSIFICATION_TYPE":"U","REF_FRAME":"TEME","OBJECT_TYPE":"PAYLOAD","FILE":"3189111"},{"MEAN_ANOMALY":"280.7700","LAUNCH_DATE":"2021-03-11","BSTAR":"0.00006839100000","SEMIMAJOR_AXIS":"6925.365","EPOCH":"2021-10-28T19:51:08.145504","PERIOD":"95.592","PERIAPSIS":"545.936","CENTER_NAME":"EARTH","RCS_SIZE":"LARGE","INCLINATION":"53.0559","APOAPSIS":"548.524","MEAN_MOTION":"15.06394663","TIME_SYSTEM":"UTC","OBJECT_NAME":"STARLINK-2387","NORAD_CAT_ID":"47806","ELEMENT_SET_NO":"999","COUNTRY_CODE":"US","EPHEMERIS_TYPE":"0","MEAN_MOTION_DOT":"0.00000737","RA_OF_ASC_NODE":"197.2602","TLE_LINE2":"2 47806  53.0559 197.2602 0001869  79.3500 280.7700 15.06394663 36645","MEAN_MOTION_DDOT":"0.0000000000000","OBJECT_ID":"2021-018V","REV_AT_EPOCH":"3664","DECAY_DATE":null,"ECCENTRICITY":"0.00018690","TLE_LINE1":"1 47806U 21018V   21301.82717761  .00000737  00000-0  68391-4 0  9991","GP_ID":"188366786","FILE":"3189402","CLASSIFICATION_TYPE":"U","OBJECT_TYPE":"PAYLOAD","REF_FRAME":"TEME","ARG_OF_PERICENTER":"79.3500","SITE":"AFETR","MEAN_ELEMENT_THEORY":"SGP4"},{"TLE_LINE2":"2 47807  53.0474 174.4057 0001979  72.6212 287.4994 15.06399488 36853","MEAN_MOTION_DDOT":"0.0000000000000","RA_OF_ASC_NODE":"174.4057","OBJECT_ID":"2021-018W","REV_AT_EPOCH":"3685","DECAY_DATE":null,"ECCENTRICITY":"0.00019790","EPHEMERIS_TYPE":"0","MEAN_MOTION_DOT":"-0.00002314","ARG_OF_PERICENTER":"72.6212","SITE":"AFETR","MEAN_ELEMENT_THEORY":"SGP4","GP_ID":"188338742","TLE_LINE1":"1 47807U 21018W   21301.35310625 -.00002314  00000-0 -13650-3 0  9990","FILE":"3189111","CLASSIFICATION_TYPE":"U","OBJECT_TYPE":"PAYLOAD","REF_FRAME":"TEME","BSTAR":"-0.00013650000000","SEMIMAJOR_AXIS":"6925.350","PERIOD":"95.592","EPOCH":"2021-10-28T08:28:28.380000","MEAN_ANOMALY":"287.4994","LAUNCH_DATE":"2021-03-11","OBJECT_NAME":"STARLINK-2388","NORAD_CAT_ID":"47807","ELEMENT_SET_NO":"999","COUNTRY_CODE":"US","PERIAPSIS":"545.845","CENTER_NAME":"EARTH","RCS_SIZE":"LARGE","INCLINATION":"53.0474","APOAPSIS":"548.586","MEAN_MOTION":"15.06399488","TIME_SYSTEM":"UTC"},{"NORAD_CAT_ID":"47808","OBJECT_NAME":"STARLINK-2389","COUNTRY_CODE":"US","ELEMENT_SET_NO":"999","APOAPSIS":"548.399","INCLINATION":"53.0552","RCS_SIZE":"LARGE","CENTER_NAME":"EARTH","PERIAPSIS":"546.029","TIME_SYSTEM":"UTC","MEAN_MOTION":"15.06399985","BSTAR":"-0.00007931100000","PERIOD":"95.592","EPOCH":"2021-10-28T10:44:26.477088","SEMIMAJOR_AXIS":"6925.349","MEAN_ANOMALY":"279.1333","LAUNCH_DATE":"2021-03-11","ARG_OF_PERICENTER":"80.9849","MEAN_ELEMENT_THEORY":"SGP4","SITE":"AFETR","TLE_LINE1":"1 47808U 21018X   21301.44752867 -.00001463  00000-0 -79311-4 0  9990","GP_ID":"188368285","OBJECT_TYPE":"PAYLOAD","REF_FRAME":"TEME","CLASSIFICATION_TYPE":"U","FILE":"3189402","REV_AT_EPOCH":"3658","OBJECT_ID":"2021-018X","TLE_LINE2":"2 47808  53.0552 198.9582 0001711  80.9849 279.1333 15.06399985 36584","MEAN_MOTION_DDOT":"0.0000000000000","RA_OF_ASC_NODE":"198.9582","ECCENTRICITY":"0.00017110","DECAY_DATE":null,"EPHEMERIS_TYPE":"0","MEAN_MOTION_DOT":"-0.00001463"},{"ECCENTRICITY":"0.00019080","DECAY_DATE":null,"REV_AT_EPOCH":"3651","OBJECT_ID":"2021-018Y","MEAN_MOTION_DDOT":"0.0000000000000","TLE_LINE2":"2 47809  53.0550 203.9225 0001908  72.6509 287.4689 15.06394797 36518","RA_OF_ASC_NODE":"203.9225","MEAN_MOTION_DOT":"0.00000961","EPHEMERIS_TYPE":"0","MEAN_ELEMENT_THEORY":"SGP4","SITE":"AFETR","ARG_OF_PERICENTER":"72.6509","REF_FRAME":"TEME","OBJECT_TYPE":"PAYLOAD","CLASSIFICATION_TYPE":"U","FILE":"3189402","TLE_LINE1":"1 47809U 21018Y   21301.45353934  .00000961  00000-0  83450-4 0  9993","GP_ID":"188367037","EPOCH":"2021-10-28T10:53:05.798976","PERIOD":"95.592","SEMIMAJOR_AXIS":"6925.365","BSTAR":"0.00008345000000","LAUNCH_DATE":"2021-03-11","MEAN_ANOMALY":"287.4689","COUNTRY_CODE":"US","ELEMENT_SET_NO":"999","NORAD_CAT_ID":"47809","OBJECT_NAME":"STARLINK-2390","TIME_SYSTEM":"UTC","MEAN_MOTION":"15.06394797","APOAPSIS":"548.551","INCLINATION":"53.0550","RCS_SIZE":"LARGE","PERIAPSIS":"545.908","CENTER_NAME":"EARTH"}];
